Zip,Municipality name,Email,Phone Number,IdCompany,Pick Up Available,Pick Up Program Name,Address Line 1,Address Line 2,Hours,Pick up instructions
02703,Attleboro,healthoutreach@cityofattleboro.us,508-223-2222 ext. 3261,48764 ,TRUE,"Attleboro Health Department, Government Center",77 Park Avenue,"Attleboro, MA 02703","Monday – Friday, 8:30 a.m. - 4:30 p.m","Please email or call to schedule a time to pick up your Youth Pass. Once your appointment is confirmed, visit the Attleboro Youth Pass office to pick up your card:"
02475,Arlington,MBTAYouthPass@town.arlington.ma.us,781-316-3255,32125 ,TRUE,"Town of Arlington, Health and Human Services",670R Massachusetts Avenue,"Arlington, MA 02476","Hours: Monday – Friday, 9 AM – 5 PM",Please email or call to schedule a Youth Pass card pick up time.
02476,Arlington,MBTAYouthPass@town.arlington.ma.us,781-316-3255,32125 ,TRUE,"Town of Arlington, Health and Human Services",670R Massachusetts Avenue,"Arlington, MA 02477","Hours: Monday – Friday, 9 AM – 5 PM",Please email or call to schedule a Youth Pass card pick up time.
02474,Arlington,MBTAYouthPass@town.arlington.ma.us,781-316-3255,32125 ,TRUE,"Town of Arlington, Health and Human Services",670R Massachusetts Avenue,"Arlington, MA 02478","Hours: Monday – Friday, 9 AM – 5 PM",Please email or call to schedule a Youth Pass card pick up time.
02108,Boston,MBTAYouthPass@boston.gov,617-635-4202 ext.2240,32200 ,TRUE,"City of Boston, Department of Youth Engagement & Employment",1483 Tremont Street,"Boston, MA 02120","Hours: Monday – Friday, 10 AM – 5 PM",No appointment needed. Drop in any time during our office hours to pick up your card. Office is located near the Roxbury Crossing Orange Line stop. 
02109,Boston,MBTAYouthPass@boston.gov,617-635-4202 ext.2240,32200 ,TRUE,"City of Boston, Department of Youth Engagement & Employment",1484 Tremont Street,"Boston, MA 02121","Hours: Monday – Friday, 10 AM – 5 PM",No appointment needed. Drop in any time during our office hours to pick up your card. Office is located near the Roxbury Crossing Orange Line stop. 
02110,Boston,MBTAYouthPass@boston.gov,617-635-4202 ext.2240,32200 ,TRUE,"City of Boston, Department of Youth Engagement & Employment",1485 Tremont Street,"Boston, MA 02122","Hours: Monday – Friday, 10 AM – 5 PM",No appointment needed. Drop in any time during our office hours to pick up your card. Office is located near the Roxbury Crossing Orange Line stop. 
02111,Boston,MBTAYouthPass@boston.gov,617-635-4202 ext.2240,32200 ,TRUE,"City of Boston, Department of Youth Engagement & Employment",1486 Tremont Street,"Boston, MA 02123","Hours: Monday – Friday, 10 AM – 5 PM",No appointment needed. Drop in any time during our office hours to pick up your card. Office is located near the Roxbury Crossing Orange Line stop. 
02112,Boston,MBTAYouthPass@boston.gov,617-635-4202 ext.2240,32200 ,TRUE,"City of Boston, Department of Youth Engagement & Employment",1487 Tremont Street,"Boston, MA 02124","Hours: Monday – Friday, 10 AM – 5 PM",No appointment needed. Drop in any time during our office hours to pick up your card. Office is located near the Roxbury Crossing Orange Line stop. 
02113,Boston,MBTAYouthPass@boston.gov,617-635-4202 ext.2240,32200 ,TRUE,"City of Boston, Department of Youth Engagement & Employment",1488 Tremont Street,"Boston, MA 02125","Hours: Monday – Friday, 10 AM – 5 PM",No appointment needed. Drop in any time during our office hours to pick up your card. Office is located near the Roxbury Crossing Orange Line stop. 
02114,Boston,MBTAYouthPass@boston.gov,617-635-4202 ext.2240,32200 ,TRUE,"City of Boston, Department of Youth Engagement & Employment",1489 Tremont Street,"Boston, MA 02126","Hours: Monday – Friday, 10 AM – 5 PM",No appointment needed. Drop in any time during our office hours to pick up your card. Office is located near the Roxbury Crossing Orange Line stop. 
02115,Boston,MBTAYouthPass@boston.gov,617-635-4202 ext.2240,32200 ,TRUE,"City of Boston, Department of Youth Engagement & Employment",1490 Tremont Street,"Boston, MA 02127","Hours: Monday – Friday, 10 AM – 5 PM",No appointment needed. Drop in any time during our office hours to pick up your card. Office is located near the Roxbury Crossing Orange Line stop. 
02116,Boston,MBTAYouthPass@boston.gov,617-635-4202 ext.2240,32200 ,TRUE,"City of Boston, Department of Youth Engagement & Employment",1491 Tremont Street,"Boston, MA 02128","Hours: Monday – Friday, 10 AM – 5 PM",No appointment needed. Drop in any time during our office hours to pick up your card. Office is located near the Roxbury Crossing Orange Line stop. 
02117,Boston,MBTAYouthPass@boston.gov,617-635-4202 ext.2240,32200 ,TRUE,"City of Boston, Department of Youth Engagement & Employment",1492 Tremont Street,"Boston, MA 02129","Hours: Monday – Friday, 10 AM – 5 PM",No appointment needed. Drop in any time during our office hours to pick up your card. Office is located near the Roxbury Crossing Orange Line stop. 
02118,Boston,MBTAYouthPass@boston.gov,617-635-4202 ext.2240,32200 ,TRUE,"City of Boston, Department of Youth Engagement & Employment",1493 Tremont Street,"Boston, MA 02130","Hours: Monday – Friday, 10 AM – 5 PM",No appointment needed. Drop in any time during our office hours to pick up your card. Office is located near the Roxbury Crossing Orange Line stop. 
02119,Boston,MBTAYouthPass@boston.gov,617-635-4202 ext.2240,32200 ,TRUE,"City of Boston, Department of Youth Engagement & Employment",1494 Tremont Street,"Boston, MA 02131","Hours: Monday – Friday, 10 AM – 5 PM",No appointment needed. Drop in any time during our office hours to pick up your card. Office is located near the Roxbury Crossing Orange Line stop. 
02120,Boston,MBTAYouthPass@boston.gov,617-635-4202 ext.2240,32200 ,TRUE,"City of Boston, Department of Youth Engagement & Employment",1495 Tremont Street,"Boston, MA 02132","Hours: Monday – Friday, 10 AM – 5 PM",No appointment needed. Drop in any time during our office hours to pick up your card. Office is located near the Roxbury Crossing Orange Line stop. 
02121,Boston,MBTAYouthPass@boston.gov,617-635-4202 ext.2240,32200 ,TRUE,"City of Boston, Department of Youth Engagement & Employment",1496 Tremont Street,"Boston, MA 02133","Hours: Monday – Friday, 10 AM – 5 PM",No appointment needed. Drop in any time during our office hours to pick up your card. Office is located near the Roxbury Crossing Orange Line stop. 
02122,Boston,MBTAYouthPass@boston.gov,617-635-4202 ext.2240,32200 ,TRUE,"City of Boston, Department of Youth Engagement & Employment",1497 Tremont Street,"Boston, MA 02134","Hours: Monday – Friday, 10 AM – 5 PM",No appointment needed. Drop in any time during our office hours to pick up your card. Office is located near the Roxbury Crossing Orange Line stop. 
02123,Boston,MBTAYouthPass@boston.gov,617-635-4202 ext.2240,32200 ,TRUE,"City of Boston, Department of Youth Engagement & Employment",1498 Tremont Street,"Boston, MA 02135","Hours: Monday – Friday, 10 AM – 5 PM",No appointment needed. Drop in any time during our office hours to pick up your card. Office is located near the Roxbury Crossing Orange Line stop. 
02124,Boston,MBTAYouthPass@boston.gov,617-635-4202 ext.2240,32200 ,TRUE,"City of Boston, Department of Youth Engagement & Employment",1499 Tremont Street,"Boston, MA 02136","Hours: Monday – Friday, 10 AM – 5 PM",No appointment needed. Drop in any time during our office hours to pick up your card. Office is located near the Roxbury Crossing Orange Line stop. 
02125,Boston,MBTAYouthPass@boston.gov,617-635-4202 ext.2240,32200 ,TRUE,"City of Boston, Department of Youth Engagement & Employment",1500 Tremont Street,"Boston, MA 02137","Hours: Monday – Friday, 10 AM – 5 PM",No appointment needed. Drop in any time during our office hours to pick up your card. Office is located near the Roxbury Crossing Orange Line stop. 
02126,Boston,MBTAYouthPass@boston.gov,617-635-4202 ext.2240,32200 ,TRUE,"City of Boston, Department of Youth Engagement & Employment",1501 Tremont Street,"Boston, MA 02138","Hours: Monday – Friday, 10 AM – 5 PM",No appointment needed. Drop in any time during our office hours to pick up your card. Office is located near the Roxbury Crossing Orange Line stop. 
02127,Boston,MBTAYouthPass@boston.gov,617-635-4202 ext.2240,32200 ,TRUE,"City of Boston, Department of Youth Engagement & Employment",1502 Tremont Street,"Boston, MA 02139","Hours: Monday – Friday, 10 AM – 5 PM",No appointment needed. Drop in any time during our office hours to pick up your card. Office is located near the Roxbury Crossing Orange Line stop. 
02128,Boston,MBTAYouthPass@boston.gov,617-635-4202 ext.2240,32200 ,TRUE,"City of Boston, Department of Youth Engagement & Employment",1503 Tremont Street,"Boston, MA 02140","Hours: Monday – Friday, 10 AM – 5 PM",No appointment needed. Drop in any time during our office hours to pick up your card. Office is located near the Roxbury Crossing Orange Line stop. 
02129,Boston,MBTAYouthPass@boston.gov,617-635-4202 ext.2240,32200 ,TRUE,"City of Boston, Department of Youth Engagement & Employment",1504 Tremont Street,"Boston, MA 02141","Hours: Monday – Friday, 10 AM – 5 PM",No appointment needed. Drop in any time during our office hours to pick up your card. Office is located near the Roxbury Crossing Orange Line stop. 
02130,Boston,MBTAYouthPass@boston.gov,617-635-4202 ext.2240,32200 ,TRUE,"City of Boston, Department of Youth Engagement & Employment",1505 Tremont Street,"Boston, MA 02142","Hours: Monday – Friday, 10 AM – 5 PM",No appointment needed. Drop in any time during our office hours to pick up your card. Office is located near the Roxbury Crossing Orange Line stop. 
02131,Boston,MBTAYouthPass@boston.gov,617-635-4202 ext.2240,32200 ,TRUE,"City of Boston, Department of Youth Engagement & Employment",1506 Tremont Street,"Boston, MA 02143","Hours: Monday – Friday, 10 AM – 5 PM",No appointment needed. Drop in any time during our office hours to pick up your card. Office is located near the Roxbury Crossing Orange Line stop. 
02132,Boston,MBTAYouthPass@boston.gov,617-635-4202 ext.2240,32200 ,TRUE,"City of Boston, Department of Youth Engagement & Employment",1507 Tremont Street,"Boston, MA 02144","Hours: Monday – Friday, 10 AM – 5 PM",No appointment needed. Drop in any time during our office hours to pick up your card. Office is located near the Roxbury Crossing Orange Line stop. 
02133,Boston,MBTAYouthPass@boston.gov,617-635-4202 ext.2240,32200 ,TRUE,"City of Boston, Department of Youth Engagement & Employment",1508 Tremont Street,"Boston, MA 02145","Hours: Monday – Friday, 10 AM – 5 PM",No appointment needed. Drop in any time during our office hours to pick up your card. Office is located near the Roxbury Crossing Orange Line stop. 
02134,Boston,MBTAYouthPass@boston.gov,617-635-4202 ext.2240,32200 ,TRUE,"City of Boston, Department of Youth Engagement & Employment",1509 Tremont Street,"Boston, MA 02146","Hours: Monday – Friday, 10 AM – 5 PM",No appointment needed. Drop in any time during our office hours to pick up your card. Office is located near the Roxbury Crossing Orange Line stop. 
02135,Boston,MBTAYouthPass@boston.gov,617-635-4202 ext.2240,32200 ,TRUE,"City of Boston, Department of Youth Engagement & Employment",1510 Tremont Street,"Boston, MA 02147","Hours: Monday – Friday, 10 AM – 5 PM",No appointment needed. Drop in any time during our office hours to pick up your card. Office is located near the Roxbury Crossing Orange Line stop. 
02136,Boston,MBTAYouthPass@boston.gov,617-635-4202 ext.2240,32200 ,TRUE,"City of Boston, Department of Youth Engagement & Employment",1511 Tremont Street,"Boston, MA 02148","Hours: Monday – Friday, 10 AM – 5 PM",No appointment needed. Drop in any time during our office hours to pick up your card. Office is located near the Roxbury Crossing Orange Line stop. 
02137,Boston,MBTAYouthPass@boston.gov,617-635-4202 ext.2240,32200 ,TRUE,"City of Boston, Department of Youth Engagement & Employment",1512 Tremont Street,"Boston, MA 02149","Hours: Monday – Friday, 10 AM – 5 PM",No appointment needed. Drop in any time during our office hours to pick up your card. Office is located near the Roxbury Crossing Orange Line stop. 
02163,Boston,MBTAYouthPass@boston.gov,617-635-4202 ext.2240,32200 ,TRUE,"City of Boston, Department of Youth Engagement & Employment",1513 Tremont Street,"Boston, MA 02150","Hours: Monday – Friday, 10 AM – 5 PM",No appointment needed. Drop in any time during our office hours to pick up your card. Office is located near the Roxbury Crossing Orange Line stop. 
02196,Boston,MBTAYouthPass@boston.gov,617-635-4202 ext.2240,32200 ,TRUE,"City of Boston, Department of Youth Engagement & Employment",1514 Tremont Street,"Boston, MA 02151","Hours: Monday – Friday, 10 AM – 5 PM",No appointment needed. Drop in any time during our office hours to pick up your card. Office is located near the Roxbury Crossing Orange Line stop. 
02199,Boston,MBTAYouthPass@boston.gov,617-635-4202 ext.2240,32200 ,TRUE,"City of Boston, Department of Youth Engagement & Employment",1515 Tremont Street,"Boston, MA 02152","Hours: Monday – Friday, 10 AM – 5 PM",No appointment needed. Drop in any time during our office hours to pick up your card. Office is located near the Roxbury Crossing Orange Line stop. 
02201,Boston,MBTAYouthPass@boston.gov,617-635-4202 ext.2240,32200 ,TRUE,"City of Boston, Department of Youth Engagement & Employment",1516 Tremont Street,"Boston, MA 02153","Hours: Monday – Friday, 10 AM – 5 PM",No appointment needed. Drop in any time during our office hours to pick up your card. Office is located near the Roxbury Crossing Orange Line stop. 
02203,Boston,MBTAYouthPass@boston.gov,617-635-4202 ext.2240,32200 ,TRUE,"City of Boston, Department of Youth Engagement & Employment",1517 Tremont Street,"Boston, MA 02154","Hours: Monday – Friday, 10 AM – 5 PM",No appointment needed. Drop in any time during our office hours to pick up your card. Office is located near the Roxbury Crossing Orange Line stop. 
02204,Boston,MBTAYouthPass@boston.gov,617-635-4202 ext.2240,32200 ,TRUE,"City of Boston, Department of Youth Engagement & Employment",1518 Tremont Street,"Boston, MA 02155","Hours: Monday – Friday, 10 AM – 5 PM",No appointment needed. Drop in any time during our office hours to pick up your card. Office is located near the Roxbury Crossing Orange Line stop. 
02205,Boston,MBTAYouthPass@boston.gov,617-635-4202 ext.2240,32200 ,TRUE,"City of Boston, Department of Youth Engagement & Employment",1519 Tremont Street,"Boston, MA 02156","Hours: Monday – Friday, 10 AM – 5 PM",No appointment needed. Drop in any time during our office hours to pick up your card. Office is located near the Roxbury Crossing Orange Line stop. 
02206,Boston,MBTAYouthPass@boston.gov,617-635-4202 ext.2240,32200 ,TRUE,"City of Boston, Department of Youth Engagement & Employment",1520 Tremont Street,"Boston, MA 02157","Hours: Monday – Friday, 10 AM – 5 PM",No appointment needed. Drop in any time during our office hours to pick up your card. Office is located near the Roxbury Crossing Orange Line stop. 
02210,Boston,MBTAYouthPass@boston.gov,617-635-4202 ext.2240,32200 ,TRUE,"City of Boston, Department of Youth Engagement & Employment",1521 Tremont Street,"Boston, MA 02158","Hours: Monday – Friday, 10 AM – 5 PM",No appointment needed. Drop in any time during our office hours to pick up your card. Office is located near the Roxbury Crossing Orange Line stop. 
02211,Boston,MBTAYouthPass@boston.gov,617-635-4202 ext.2240,32200 ,TRUE,"City of Boston, Department of Youth Engagement & Employment",1522 Tremont Street,"Boston, MA 02159","Hours: Monday – Friday, 10 AM – 5 PM",No appointment needed. Drop in any time during our office hours to pick up your card. Office is located near the Roxbury Crossing Orange Line stop. 
02212,Boston,MBTAYouthPass@boston.gov,617-635-4202 ext.2240,32200 ,TRUE,"City of Boston, Department of Youth Engagement & Employment",1523 Tremont Street,"Boston, MA 02160","Hours: Monday – Friday, 10 AM – 5 PM",No appointment needed. Drop in any time during our office hours to pick up your card. Office is located near the Roxbury Crossing Orange Line stop. 
02215,Boston,MBTAYouthPass@boston.gov,617-635-4202 ext.2240,32200 ,TRUE,"City of Boston, Department of Youth Engagement & Employment",1524 Tremont Street,"Boston, MA 02161","Hours: Monday – Friday, 10 AM – 5 PM",No appointment needed. Drop in any time during our office hours to pick up your card. Office is located near the Roxbury Crossing Orange Line stop. 
02217,Boston,MBTAYouthPass@boston.gov,617-635-4202 ext.2240,32200 ,TRUE,"City of Boston, Department of Youth Engagement & Employment",1525 Tremont Street,"Boston, MA 02162","Hours: Monday – Friday, 10 AM – 5 PM",No appointment needed. Drop in any time during our office hours to pick up your card. Office is located near the Roxbury Crossing Orange Line stop. 
02222,Boston,MBTAYouthPass@boston.gov,617-635-4202 ext.2240,32200 ,TRUE,"City of Boston, Department of Youth Engagement & Employment",1526 Tremont Street,"Boston, MA 02163","Hours: Monday – Friday, 10 AM – 5 PM",No appointment needed. Drop in any time during our office hours to pick up your card. Office is located near the Roxbury Crossing Orange Line stop. 
02241,Boston,MBTAYouthPass@boston.gov,617-635-4202 ext.2240,32200 ,TRUE,"City of Boston, Department of Youth Engagement & Employment",1527 Tremont Street,"Boston, MA 02164","Hours: Monday – Friday, 10 AM – 5 PM",No appointment needed. Drop in any time during our office hours to pick up your card. Office is located near the Roxbury Crossing Orange Line stop. 
02283,Boston,MBTAYouthPass@boston.gov,617-635-4202 ext.2240,32200 ,TRUE,"City of Boston, Department of Youth Engagement & Employment",1528 Tremont Street,"Boston, MA 02165","Hours: Monday – Friday, 10 AM – 5 PM",No appointment needed. Drop in any time during our office hours to pick up your card. Office is located near the Roxbury Crossing Orange Line stop. 
02284,Boston,MBTAYouthPass@boston.gov,617-635-4202 ext.2240,32200 ,TRUE,"City of Boston, Department of Youth Engagement & Employment",1529 Tremont Street,"Boston, MA 02166","Hours: Monday – Friday, 10 AM – 5 PM",No appointment needed. Drop in any time during our office hours to pick up your card. Office is located near the Roxbury Crossing Orange Line stop. 
02293,Boston,MBTAYouthPass@boston.gov,617-635-4202 ext.2240,32200 ,TRUE,"City of Boston, Department of Youth Engagement & Employment",1530 Tremont Street,"Boston, MA 02167","Hours: Monday – Friday, 10 AM – 5 PM",No appointment needed. Drop in any time during our office hours to pick up your card. Office is located near the Roxbury Crossing Orange Line stop. 
02297,Boston,MBTAYouthPass@boston.gov,617-635-4202 ext.2240,32200 ,TRUE,"City of Boston, Department of Youth Engagement & Employment",1531 Tremont Street,"Boston, MA 02168","Hours: Monday – Friday, 10 AM – 5 PM",No appointment needed. Drop in any time during our office hours to pick up your card. Office is located near the Roxbury Crossing Orange Line stop. 
02298,Boston,MBTAYouthPass@boston.gov,617-635-4202 ext.2240,32200 ,TRUE,"City of Boston, Department of Youth Engagement & Employment",1532 Tremont Street,"Boston, MA 02169","Hours: Monday – Friday, 10 AM – 5 PM",No appointment needed. Drop in any time during our office hours to pick up your card. Office is located near the Roxbury Crossing Orange Line stop. 
02445,Brookline,mbtayouthpass@brooklinema.gov,617-730-2177,35472 ,FALSE,"Town of Brookline, Transportation Division Office","333 Washington Street, 4th Floor","Brookline, MA 02445","Hours: Monday – Thursday, 8 AM – 5 PM; Friday, 8 AM – 12:30 PM",Please email or call to schedule a Youth Pass Card pick up time.
02446,Brookline,mbtayouthpass@brooklinema.gov,617-730-2177,35472 ,FALSE,"Town of Brookline, Transportation Division Office","333 Washington Street, 4th Floor","Brookline, MA 02445","Hours: Monday – Thursday, 8 AM – 5 PM; Friday, 8 AM – 12:30 PM",Please email or call to schedule a Youth Pass Card pick up time.
02447,Brookline,mbtayouthpass@brooklinema.gov,617-730-2177,35472 ,FALSE,"Town of Brookline, Transportation Division Office","333 Washington Street, 4th Floor","Brookline, MA 02445","Hours: Monday – Thursday, 8 AM – 5 PM; Friday, 8 AM – 12:30 PM",Please email or call to schedule a Youth Pass Card pick up time.
02138,Cambridge,tpass@cambridgema.gov,617-349-6234,32169 ,FALSE,"City of Cambridge, Department of Human Service Programs",51 Inman Street,"Cambridge, MA 02139","Hours: Monday, 8:30 AM – 8 PM; Tuesday – Friday, 8:30 AM – 5 PM",Please email or call to schedule a Youth Pass Card pick up time.
02139,Cambridge,tpass@cambridgema.gov,617-349-6234,32169 ,FALSE,"City of Cambridge, Department of Human Service Programs",52 Inman Street,"Cambridge, MA 02140","Hours: Monday, 8:30 AM – 8 PM; Tuesday – Friday, 8:30 AM – 5 PM",Please email or call to schedule a Youth Pass Card pick up time.
02140,Cambridge,tpass@cambridgema.gov,617-349-6234,32169 ,FALSE,"City of Cambridge, Department of Human Service Programs",53 Inman Street,"Cambridge, MA 02141","Hours: Monday, 8:30 AM – 8 PM; Tuesday – Friday, 8:30 AM – 5 PM",Please email or call to schedule a Youth Pass Card pick up time.
02141,Cambridge,tpass@cambridgema.gov,617-349-6234,32169 ,FALSE,"City of Cambridge, Department of Human Service Programs",54 Inman Street,"Cambridge, MA 02142","Hours: Monday, 8:30 AM – 8 PM; Tuesday – Friday, 8:30 AM – 5 PM",Please email or call to schedule a Youth Pass Card pick up time.
02142,Cambridge,tpass@cambridgema.gov,617-349-6234,32169 ,FALSE,"City of Cambridge, Department of Human Service Programs",55 Inman Street,"Cambridge, MA 02143","Hours: Monday, 8:30 AM – 8 PM; Tuesday – Friday, 8:30 AM – 5 PM",Please email or call to schedule a Youth Pass Card pick up time.
02238,Cambridge,tpass@cambridgema.gov,617-349-6234,32169 ,FALSE,"City of Cambridge, Department of Human Service Programs",56 Inman Street,"Cambridge, MA 02144","Hours: Monday, 8:30 AM – 8 PM; Tuesday – Friday, 8:30 AM – 5 PM",Please email or call to schedule a Youth Pass Card pick up time.
02150,Chelsea,youthpass@greenrootschelsea.org,617-466-3076 ext. 6,32156 ,FALSE,GreenRoots,227 Marginal Street #1,"Chelsea, MA 02150","Hours: Monday – Thursday, 9 AM – 5 PM",Please email or call to schedule a Youth Pass Card pick up time.
02149,Everett,margaret.cornelio@ci.everett.ma.us,617-394-2323,37023 ,FALSE,"City of Everett, Department of Health and Human Services","Connolly Center, 90 Chelsea St","Everett, MA 02149","Hours: Monday, 8 AM – 4 PM; Tuesday – Thursday, 8 AM – 5 PM; Friday, 8 AM – 12 PM ",Please email or call to schedule a Youth Pass Card pick up time.
02420,Lexington,transportation@lexingtonma.gov,781-698-4840 ,37027 ,TRUE,"Lexington Community Center, Department of Human Services",39 Marrett Road,"Lexington, MA 02421","Hours: Monday – Friday, 8 AM – 9PM; Saturday 9 AM – 5 PM","Drop in during processing hours: Monday – Friday, 8:30 AM – 4:30 PM"
02421,Lexington,transportation@lexingtonma.gov,781-698-4840 ,37027 ,TRUE,"Lexington Community Center, Department of Human Services",39 Marrett Road,"Lexington, MA 02421","Hours: Monday – Friday, 8 AM – 9PM; Saturday 9 AM – 5 PM","Drop in during processing hours: Monday – Friday, 8:30 AM – 4:30 PM"
02148,Malden,esavino@cityofmalden.org,781-397-7000 ext. 6,32185 ,TRUE,"City of Malden, Mayor’s Office","215 Pleasant Street, 4th Floor","Malden, MA 02148","Hours: Monday, Wednesday, Thursday, 9 AM – 3 PM; Tuesday, 9 AM – 6 PM",Please email to schedule a time to pick up your Youth Pass card.
02153,Medford,collector@medford-ma.gov,781-393-2550,37053 ,TRUE,"City of Medford, Medford City Hall","85 George P. Hassett Drive, Room 108","Medford, MA 02155","Hours: Monday, Tuesday, and Thursday, 9AM – 4PM; Wednesday, 9AM – 7PM",Please email or call to schedule a Youth Pass Card pick up time.
02155,Medford,collector@medford-ma.gov,781-393-2550,37053 ,TRUE,"City of Medford, Medford City Hall","85 George P. Hassett Drive, Room 108","Medford, MA 02155","Hours: Monday, Tuesday, and Thursday, 9AM – 4PM; Wednesday, 9AM – 7PM",Please email or call to schedule a Youth Pass Card pick up time.
02156,Medford,collector@medford-ma.gov,781-393-2550,37053 ,TRUE,"City of Medford, Medford City Hall","85 George P. Hassett Drive, Room 108","Medford, MA 02155","Hours: Monday, Tuesday, and Thursday, 9AM – 4PM; Wednesday, 9AM – 7PM",Please email or call to schedule a Youth Pass Card pick up time.
02176,Melrose,melroseyouthpass@cityofmelrose.org,781-662-6886,48737 ,TRUE,"City of Melrose, Milano Senior Center",201 West Foster Street,"Melrose, MA 02176","Hours: Monday – Friday, 8:30 AM – 4 PM",Please email or call to schedule a Youth Pass card pick up time.
01833,North Shore,youthpass@northshore.edu,978-762-4189,32127 ,TRUE,"North Shore Community College, Student Financial Services",300 Broad Street,"Lynn, MA 01901","Hours: Wednesday – Thursday, 9 AM  – 4 PM",Please visit the Student Success Center (LS134). Walk-ins welcome (no appointment needed).
01834,North Shore,youthpass@northshore.edu,978-762-4189,32127 ,TRUE,"North Shore Community College, Student Financial Services",301 Broad Street,"Lynn, MA 01902","Hours: Wednesday – Thursday, 9 AM  – 4 PM",Please visit the Student Success Center (LS134). Walk-ins welcome (no appointment needed).
01860,North Shore,youthpass@northshore.edu,978-762-4189,32127 ,TRUE,"North Shore Community College, Student Financial Services",302 Broad Street,"Lynn, MA 01903","Hours: Wednesday – Thursday, 9 AM  – 4 PM",Please visit the Student Success Center (LS134). Walk-ins welcome (no appointment needed).
01885,North Shore,youthpass@northshore.edu,978-762-4189,32127 ,TRUE,"North Shore Community College, Student Financial Services",303 Broad Street,"Lynn, MA 01904","Hours: Wednesday – Thursday, 9 AM  – 4 PM",Please visit the Student Success Center (LS134). Walk-ins welcome (no appointment needed).
01901,North Shore,youthpass@northshore.edu,978-762-4189,32127 ,TRUE,"North Shore Community College, Student Financial Services",304 Broad Street,"Lynn, MA 01905","Hours: Wednesday – Thursday, 9 AM  – 4 PM",Please visit the Student Success Center (LS134). Walk-ins welcome (no appointment needed).
01902,North Shore,youthpass@northshore.edu,978-762-4189,32127 ,TRUE,"North Shore Community College, Student Financial Services",305 Broad Street,"Lynn, MA 01906","Hours: Wednesday – Thursday, 9 AM  – 4 PM",Please visit the Student Success Center (LS134). Walk-ins welcome (no appointment needed).
01903,North Shore,youthpass@northshore.edu,978-762-4189,32127 ,TRUE,"North Shore Community College, Student Financial Services",306 Broad Street,"Lynn, MA 01907","Hours: Wednesday – Thursday, 9 AM  – 4 PM",Please visit the Student Success Center (LS134). Walk-ins welcome (no appointment needed).
01904,North Shore,youthpass@northshore.edu,978-762-4189,32127 ,TRUE,"North Shore Community College, Student Financial Services",307 Broad Street,"Lynn, MA 01908","Hours: Wednesday – Thursday, 9 AM  – 4 PM",Please visit the Student Success Center (LS134). Walk-ins welcome (no appointment needed).
01905,North Shore,youthpass@northshore.edu,978-762-4189,32127 ,TRUE,"North Shore Community College, Student Financial Services",308 Broad Street,"Lynn, MA 01909","Hours: Wednesday – Thursday, 9 AM  – 4 PM",Please visit the Student Success Center (LS134). Walk-ins welcome (no appointment needed).
01906,North Shore,youthpass@northshore.edu,978-762-4189,32127 ,TRUE,"North Shore Community College, Student Financial Services",309 Broad Street,"Lynn, MA 01910","Hours: Wednesday – Thursday, 9 AM  – 4 PM",Please visit the Student Success Center (LS134). Walk-ins welcome (no appointment needed).
01907,North Shore,youthpass@northshore.edu,978-762-4189,32127 ,TRUE,"North Shore Community College, Student Financial Services",310 Broad Street,"Lynn, MA 01911","Hours: Wednesday – Thursday, 9 AM  – 4 PM",Please visit the Student Success Center (LS134). Walk-ins welcome (no appointment needed).
01908,North Shore,youthpass@northshore.edu,978-762-4189,32127 ,TRUE,"North Shore Community College, Student Financial Services",311 Broad Street,"Lynn, MA 01912","Hours: Wednesday – Thursday, 9 AM  – 4 PM",Please visit the Student Success Center (LS134). Walk-ins welcome (no appointment needed).
01910,North Shore,youthpass@northshore.edu,978-762-4189,32127 ,TRUE,"North Shore Community College, Student Financial Services",312 Broad Street,"Lynn, MA 01913","Hours: Wednesday – Thursday, 9 AM  – 4 PM",Please visit the Student Success Center (LS134). Walk-ins welcome (no appointment needed).
01915,North Shore,youthpass@northshore.edu,978-762-4189,32127 ,TRUE,"North Shore Community College, Student Financial Services",313 Broad Street,"Lynn, MA 01914","Hours: Wednesday – Thursday, 9 AM  – 4 PM",Please visit the Student Success Center (LS134). Walk-ins welcome (no appointment needed).
01921,North Shore,youthpass@northshore.edu,978-762-4189,32127 ,TRUE,"North Shore Community College, Student Financial Services",314 Broad Street,"Lynn, MA 01915","Hours: Wednesday – Thursday, 9 AM  – 4 PM",Please visit the Student Success Center (LS134). Walk-ins welcome (no appointment needed).
01922,North Shore,youthpass@northshore.edu,978-762-4189,32127 ,TRUE,"North Shore Community College, Student Financial Services",315 Broad Street,"Lynn, MA 01916","Hours: Wednesday – Thursday, 9 AM  – 4 PM",Please visit the Student Success Center (LS134). Walk-ins welcome (no appointment needed).
01923,North Shore,youthpass@northshore.edu,978-762-4189,32127 ,TRUE,"North Shore Community College, Student Financial Services",316 Broad Street,"Lynn, MA 01917","Hours: Wednesday – Thursday, 9 AM  – 4 PM",Please visit the Student Success Center (LS134). Walk-ins welcome (no appointment needed).
01929,North Shore,youthpass@northshore.edu,978-762-4189,32127 ,TRUE,"North Shore Community College, Student Financial Services",317 Broad Street,"Lynn, MA 01918","Hours: Wednesday – Thursday, 9 AM  – 4 PM",Please visit the Student Success Center (LS134). Walk-ins welcome (no appointment needed).
01930,North Shore,youthpass@northshore.edu,978-762-4189,32127 ,TRUE,"North Shore Community College, Student Financial Services",318 Broad Street,"Lynn, MA 01919","Hours: Wednesday – Thursday, 9 AM  – 4 PM",Please visit the Student Success Center (LS134). Walk-ins welcome (no appointment needed).
01931,North Shore,youthpass@northshore.edu,978-762-4189,32127 ,TRUE,"North Shore Community College, Student Financial Services",319 Broad Street,"Lynn, MA 01920","Hours: Wednesday – Thursday, 9 AM  – 4 PM",Please visit the Student Success Center (LS134). Walk-ins welcome (no appointment needed).
01936,North Shore,youthpass@northshore.edu,978-762-4189,32127 ,TRUE,"North Shore Community College, Student Financial Services",320 Broad Street,"Lynn, MA 01921","Hours: Wednesday – Thursday, 9 AM  – 4 PM",Please visit the Student Success Center (LS134). Walk-ins welcome (no appointment needed).
01938,North Shore,youthpass@northshore.edu,978-762-4189,32127 ,TRUE,"North Shore Community College, Student Financial Services",321 Broad Street,"Lynn, MA 01922","Hours: Wednesday – Thursday, 9 AM  – 4 PM",Please visit the Student Success Center (LS134). Walk-ins welcome (no appointment needed).
01940,North Shore,youthpass@northshore.edu,978-762-4189,32127 ,TRUE,"North Shore Community College, Student Financial Services",322 Broad Street,"Lynn, MA 01923","Hours: Wednesday – Thursday, 9 AM  – 4 PM",Please visit the Student Success Center (LS134). Walk-ins welcome (no appointment needed).
01944,North Shore,youthpass@northshore.edu,978-762-4189,32127 ,TRUE,"North Shore Community College, Student Financial Services",323 Broad Street,"Lynn, MA 01924","Hours: Wednesday – Thursday, 9 AM  – 4 PM",Please visit the Student Success Center (LS134). Walk-ins welcome (no appointment needed).
01945,North Shore,youthpass@northshore.edu,978-762-4189,32127 ,TRUE,"North Shore Community College, Student Financial Services",324 Broad Street,"Lynn, MA 01925","Hours: Wednesday – Thursday, 9 AM  – 4 PM",Please visit the Student Success Center (LS134). Walk-ins welcome (no appointment needed).
01949,North Shore,youthpass@northshore.edu,978-762-4189,32127 ,TRUE,"North Shore Community College, Student Financial Services",325 Broad Street,"Lynn, MA 01926","Hours: Wednesday – Thursday, 9 AM  – 4 PM",Please visit the Student Success Center (LS134). Walk-ins welcome (no appointment needed).
01950,North Shore,youthpass@northshore.edu,978-762-4189,32127 ,TRUE,"North Shore Community College, Student Financial Services",326 Broad Street,"Lynn, MA 01927","Hours: Wednesday – Thursday, 9 AM  – 4 PM",Please visit the Student Success Center (LS134). Walk-ins welcome (no appointment needed).
01951,North Shore,youthpass@northshore.edu,978-762-4189,32127 ,TRUE,"North Shore Community College, Student Financial Services",327 Broad Street,"Lynn, MA 01928","Hours: Wednesday – Thursday, 9 AM  – 4 PM",Please visit the Student Success Center (LS134). Walk-ins welcome (no appointment needed).
01952,North Shore,youthpass@northshore.edu,978-762-4189,32127 ,TRUE,"North Shore Community College, Student Financial Services",328 Broad Street,"Lynn, MA 01929","Hours: Wednesday – Thursday, 9 AM  – 4 PM",Please visit the Student Success Center (LS134). Walk-ins welcome (no appointment needed).
01960,North Shore,youthpass@northshore.edu,978-762-4189,32127 ,TRUE,"North Shore Community College, Student Financial Services",329 Broad Street,"Lynn, MA 01930","Hours: Wednesday – Thursday, 9 AM  – 4 PM",Please visit the Student Success Center (LS134). Walk-ins welcome (no appointment needed).
01961,North Shore,youthpass@northshore.edu,978-762-4189,32127 ,TRUE,"North Shore Community College, Student Financial Services",330 Broad Street,"Lynn, MA 01931","Hours: Wednesday – Thursday, 9 AM  – 4 PM",Please visit the Student Success Center (LS134). Walk-ins welcome (no appointment needed).
01966,North Shore,youthpass@northshore.edu,978-762-4189,32127 ,TRUE,"North Shore Community College, Student Financial Services",331 Broad Street,"Lynn, MA 01932","Hours: Wednesday – Thursday, 9 AM  – 4 PM",Please visit the Student Success Center (LS134). Walk-ins welcome (no appointment needed).
01969,North Shore,youthpass@northshore.edu,978-762-4189,32127 ,TRUE,"North Shore Community College, Student Financial Services",332 Broad Street,"Lynn, MA 01933","Hours: Wednesday – Thursday, 9 AM  – 4 PM",Please visit the Student Success Center (LS134). Walk-ins welcome (no appointment needed).
01970,North Shore,youthpass@northshore.edu,978-762-4189,32127 ,TRUE,"North Shore Community College, Student Financial Services",333 Broad Street,"Lynn, MA 01934","Hours: Wednesday – Thursday, 9 AM  – 4 PM",Please visit the Student Success Center (LS134). Walk-ins welcome (no appointment needed).
01971,North Shore,youthpass@northshore.edu,978-762-4189,32127 ,TRUE,"North Shore Community College, Student Financial Services",334 Broad Street,"Lynn, MA 01935","Hours: Wednesday – Thursday, 9 AM  – 4 PM",Please visit the Student Success Center (LS134). Walk-ins welcome (no appointment needed).
01983,North Shore,youthpass@northshore.edu,978-762-4189,32127 ,TRUE,"North Shore Community College, Student Financial Services",335 Broad Street,"Lynn, MA 01936","Hours: Wednesday – Thursday, 9 AM  – 4 PM",Please visit the Student Success Center (LS134). Walk-ins welcome (no appointment needed).
01984,North Shore,youthpass@northshore.edu,978-762-4189,32127 ,TRUE,"North Shore Community College, Student Financial Services",336 Broad Street,"Lynn, MA 01937","Hours: Wednesday – Thursday, 9 AM  – 4 PM",Please visit the Student Success Center (LS134). Walk-ins welcome (no appointment needed).
01985,North Shore,youthpass@northshore.edu,978-762-4189,32127 ,TRUE,"North Shore Community College, Student Financial Services",337 Broad Street,"Lynn, MA 01938","Hours: Wednesday – Thursday, 9 AM  – 4 PM",Please visit the Student Success Center (LS134). Walk-ins welcome (no appointment needed).
02169,Quincy,frontdesk@quincyasianresources.org,617-472-2200,32210 ,FALSE,"Quincy Asian Resources, Inc. (QARI)","1509 Hancock Street, Suite 209","Quincy, MA 02169","Hours: Monday – Friday, 9 AM – 3:30 PM",Please email or call to schedule a Youth Pass Card pick up time.
02170,Quincy,frontdesk@quincyasianresources.org,617-472-2200,32210 ,FALSE,"Quincy Asian Resources, Inc. (QARI)","1509 Hancock Street, Suite 209","Quincy, MA 02169","Hours: Monday – Friday, 9 AM – 3:30 PM",Please email or call to schedule a Youth Pass Card pick up time.
02171,Quincy,frontdesk@quincyasianresources.org,617-472-2200,32210 ,FALSE,"Quincy Asian Resources, Inc. (QARI)","1509 Hancock Street, Suite 209","Quincy, MA 02169","Hours: Monday – Friday, 9 AM – 3:30 PM",Please email or call to schedule a Youth Pass Card pick up time.
02269,Quincy,frontdesk@quincyasianresources.org,617-472-2200,32210 ,FALSE,"Quincy Asian Resources, Inc. (QARI)","1509 Hancock Street, Suite 209","Quincy, MA 02169","Hours: Monday – Friday, 9 AM – 3:30 PM",Please email or call to schedule a Youth Pass Card pick up time.
02151,Revere,revereyouthpass@gmail.com,781-286-8380 ext. 3,32215 ,TRUE,"Revere Public Library, Children’s Library",179 Beach St,"Revere, MA 02151","Hours: Monday - Thursday 12PM-8PM, and Saturday 9 AM – 5 PM",Use the Children's Library entrance and go to the Children's Desk.
02143,Somerville,NBacci@somervillema.gov,617-625-6600 ext. 2406,32128 ,TRUE,"City of Somerville, Department of Health and Human Services",50 Evergreen Avenue,"Somerville, MA 02145","Hours: Monday, Tuesday, and Friday, 8:30 AM – 12 PM",Please email or call to schedule a Youth Pass card pick up time.
02144,Somerville,NBacci@somervillema.gov,617-625-6600 ext. 2406,32128 ,TRUE,"City of Somerville, Department of Health and Human Services",51 Evergreen Avenue,"Somerville, MA 02146","Hours: Monday, Tuesday, and Friday, 8:30 AM – 12 PM",Please email or call to schedule a Youth Pass card pick up time.
02145,Somerville,NBacci@somervillema.gov,617-625-6600 ext. 2406,32128 ,TRUE,"City of Somerville, Department of Health and Human Services",52 Evergreen Avenue,"Somerville, MA 02147","Hours: Monday, Tuesday, and Friday, 8:30 AM – 12 PM",Please email or call to schedule a Youth Pass card pick up time.
01880,Wakefield,MBTAYouthPass@wakefield.ma.us,781-246-6390,46616 ,TRUE,Town Administrator's Office,1 Lafayette Street,"Wakefield, MA 01880","Hours: Monday – Thursday, 8 AM – 4:30 PM; Friday, 8 AM – 12:30 PM ",Please email or call to schedule a Youth Pass card pick up time.
02471,Watertown,Maysa_ramos@WaysideYouth.org,617-744-9585,38177 ,TRUE,Wayside Youth & Family Support Network,127 North Beacon Street,"Watertown, MA 02472","Hours: Monday – Friday, 9 AM – 5 PM",By appointment only. Please call or email to set a time to pick up your Youth Pass.
02472,Watertown,Maysa_ramos@WaysideYouth.org,617-744-9585,38177 ,TRUE,Wayside Youth & Family Support Network,127 North Beacon Street,"Watertown, MA 02472","Hours: Monday – Friday, 9 AM – 5 PM",By appointment only. Please call or email to set a time to pick up your Youth Pass.
02477,Watertown,Maysa_ramos@WaysideYouth.org,617-744-9585,38177 ,TRUE,Wayside Youth & Family Support Network,127 North Beacon Street,"Watertown, MA 02472","Hours: Monday – Friday, 9 AM – 5 PM",By appointment only. Please call or email to set a time to pick up your Youth Pass.
01601,Worcester,youth@worcesterma.gov,508-799-1328,48747 ,TRUE,"City of Worcester, Division of Youth Opportunities","128 Providence Street, Room 322","Worcester, MA 01604","Hours: Monday – Friday, 8:30 AM – 5 PM",Please email or call to schedule a Youth Pass card pick up time.
01602,Worcester,youth@worcesterma.gov,508-799-1328,48747 ,TRUE,"City of Worcester, Division of Youth Opportunities","128 Providence Street, Room 322","Worcester, MA 01604","Hours: Monday – Friday, 8:30 AM – 5 PM",Please email or call to schedule a Youth Pass card pick up time.
01603,Worcester,youth@worcesterma.gov,508-799-1328,48747 ,TRUE,"City of Worcester, Division of Youth Opportunities","128 Providence Street, Room 322","Worcester, MA 01604","Hours: Monday – Friday, 8:30 AM – 5 PM",Please email or call to schedule a Youth Pass card pick up time.
01604,Worcester,youth@worcesterma.gov,508-799-1328,48747 ,TRUE,"City of Worcester, Division of Youth Opportunities","128 Providence Street, Room 322","Worcester, MA 01604","Hours: Monday – Friday, 8:30 AM – 5 PM",Please email or call to schedule a Youth Pass card pick up time.
01605,Worcester,youth@worcesterma.gov,508-799-1328,48747 ,TRUE,"City of Worcester, Division of Youth Opportunities","128 Providence Street, Room 322","Worcester, MA 01604","Hours: Monday – Friday, 8:30 AM – 5 PM",Please email or call to schedule a Youth Pass card pick up time.
01606,Worcester,youth@worcesterma.gov,508-799-1328,48747 ,TRUE,"City of Worcester, Division of Youth Opportunities","128 Providence Street, Room 322","Worcester, MA 01604","Hours: Monday – Friday, 8:30 AM – 5 PM",Please email or call to schedule a Youth Pass card pick up time.
01607,Worcester,youth@worcesterma.gov,508-799-1328,48747 ,TRUE,"City of Worcester, Division of Youth Opportunities","128 Providence Street, Room 322","Worcester, MA 01604","Hours: Monday – Friday, 8:30 AM – 5 PM",Please email or call to schedule a Youth Pass card pick up time.
01608,Worcester,youth@worcesterma.gov,508-799-1328,48747 ,TRUE,"City of Worcester, Division of Youth Opportunities","128 Providence Street, Room 322","Worcester, MA 01604","Hours: Monday – Friday, 8:30 AM – 5 PM",Please email or call to schedule a Youth Pass card pick up time.
01609,Worcester,youth@worcesterma.gov,508-799-1328,48747 ,TRUE,"City of Worcester, Division of Youth Opportunities","128 Providence Street, Room 322","Worcester, MA 01604","Hours: Monday – Friday, 8:30 AM – 5 PM",Please email or call to schedule a Youth Pass card pick up time.
01610,Worcester,youth@worcesterma.gov,508-799-1328,48747 ,TRUE,"City of Worcester, Division of Youth Opportunities","128 Providence Street, Room 322","Worcester, MA 01604","Hours: Monday – Friday, 8:30 AM – 5 PM",Please email or call to schedule a Youth Pass card pick up time.
99999,Testing,ebalkam@mbta.com,617-222-3200,99999,TRUE,MBTA CTD,10 Park Place,Boston MA 02116,"Hours: Monday – Friday, 10 AM – 5 PM",Please email or call to schedule a Youth Pass Card pick up time.